1 43013U 17073A   26096.24706130  .00000105  00000+0  70918-4 0  9999
2 43013  98.7725  36.3658 0002061 100.3989 259.7419 14.19543635434268
